[Satellite]
VERSION=1.1
NAME=XW-2E
NICKNAME=XW-2E
TLE1=1 40909U 15049L   19311.45706716  .00000820  00000-0  43562-4 0  9996
TLE2=2 40909  97.4632 313.9920 0015119  62.0066  99.5984 15.18003163228698
STATUS=0
